{"type": "FeatureCollection", "features": [ {"type": "Feature", "properties": {"norad_id": 30649, "name": "FENGYUN 1C DEB", "group": "fengyun-1c-debris", "lat": -60.069569860840346, "lon": -101.4794025964362, "alt_km": 808.7255882009549, "timestamp": "2025-12-24T16:52:41.809854+00:00", "meta": {"OBJECT_NAME": "FENGYUN 1C DEB", "OBJECT_ID": "1999-025APG", "EPOCH": "2025-12-22T05:15:24.732864", "MEAN_MOTION": 14.29607893, "ECCENTRICITY": 0.00510647, "INCLINATION": 98.8095, "RA_OF_ASC_NODE": 91.6349, "ARG_OF_PERICENTER": 144.5139, "MEAN_ANOMALY": 277.9996, "EPHEMERIS_TYPE": 0, "CLASSIFICATION_TYPE": "U", "NORAD_CAT_ID": 30649, "ELEMENT_SET_NO": 999, "REV_AT_EPOCH": 97199, "BSTAR": 0.0017348643, "MEAN_MOTION_DOT": 4.462e-05, "MEAN_MOTION_DDOT": 0}, "tle": {"line1": "1 30649U 99025APG 25356.21903626  .00004462  00000+0  17349-2 0  9998", "line2": "2 30649  98.8095  91.6349 0051064 144.5139 277.9996 14.29607893971991"}}, "geometry": {"type": "Point", "coordinates": [-101.4794025964362, -60.069569860840346]}}, {"type": "Feature", "properties": {"norad_id": 30650, "name": "FENGYUN 1C DEB", "group": "fengyun-1c-debris", "lat": -69.8544095160561, "lon": 65.87083705644706, "alt_km": 887.2512058319498, "timestamp": "2025-12-24T16:52:41.809864+00:00", "meta": {"OBJECT_NAME": "FENGYUN 1C DEB", "OBJECT_ID": "1999-025APH", "EPOCH": "2025-12-23T02:17:31.822080", "MEAN_MOTION": 14.13990408, "ECCENTRICITY": 0.00722345, "INCLINATION": 99.2032, "RA_OF_ASC_NODE": 37.9886, "ARG_OF_PERICENTER": 161.1508, "MEAN_ANOMALY": 226.6955, "EPHEMERIS_TYPE": 0, "CLASSIFICATION_TYPE": "U", "NORAD_CAT_ID": 30650, "ELEMENT_SET_NO": 999, "REV_AT_EPOCH": 96445, "BSTAR": 0.0014154524, "MEAN_MOTION_DOT": 2.711e-05, "MEAN_MOTION_DDOT": 0}, "tle": {"line1": "1 30650U 99025APH 25357.09550720  .00002711  00000+0  14155-2 0  9997", "line2": "2 30650  99.2032  37.9886 0072234 161.1508 226.6955 14.13990408964454"}}, "geometry": {"type": "Point", "coordinates": [65.87083705644706, -69.8544095160561]}}, {"type": "Feature", "properties": {"norad_id": 30652, "name": "FENGYUN 1C DEB", "group": "fengyun-1c-debris", "lat": 79.58832401891924, "lon": -25.786430144238523, "alt_km": 863.9069932372404, "timestamp": "2025-12-24T16:52:41.809874+00:00", "meta": {"OBJECT_NAME": "FENGYUN 1C DEB", "OBJECT_ID": "1999-025APJ", "EPOCH": "2025-12-24T01:23:01.182048", "MEAN_MOTION": 14.07808578, "ECCENTRICITY": 0.00076004, "INCLINATION": 98.7839, "RA_OF_ASC_NODE": 30.8824, "ARG_OF_PERICENTER": 229.7223, "MEAN_ANOMALY": 184.5363, "EPHEMERIS_TYPE": 0, "CLASSIFICATION_TYPE": "U", "NORAD_CAT_ID": 30652, "ELEMENT_SET_NO": 999, "REV_AT_EPOCH": 96853, "BSTAR": 7.1525639e-05, "MEAN_MOTION_DOT": 7.8e-07, "MEAN_MOTION_DDOT": 0}, "tle": {"line1": "1 30652U 99025APJ 25358.05765257  .00000078  00000+0  71526-4 0  9990", "line2": "2 30652  98.7839  30.8824 0007600 229.7223 184.5363 14.07808578968536"}}, "geometry": {"type": "Point", "coordinates": [-25.786430144238523, 79.58832401891924]}}, {"type": "Feature", "properties": {"norad_id": 30654, "name": "FENGYUN 1C DEB", "group": "fengyun-1c-debris", "lat": 46.84834873794941, "lon": 112.41203828440062, "alt_km": 821.4180083550173, "timestamp": "2025-12-24T16:52:41.809885+00:00", "meta": {"OBJECT_NAME": "FENGYUN 1C DEB", "OBJECT_ID": "1999-025APL", "EPOCH": "2025-12-22T06:38:50.417088", "MEAN_MOTION": 14.17136613, "ECCENTRICITY": 0.00358095, "INCLINATION": 99.2429, "RA_OF_ASC_NODE": 279.8885, "ARG_OF_PERICENTER": 70.2851, "MEAN_ANOMALY": 290.218, "EPHEMERIS_TYPE": 0, "CLASSIFICATION_TYPE": "U", "NORAD_CAT_ID": 30654, "ELEMENT_SET_NO": 999, "REV_AT_EPOCH": 96815, "BSTAR": 0.0010659496, "MEAN_MOTION_DOT": 2.114e-05, "MEAN_MOTION_DDOT": 0}, "tle": {"line1": "1 30654U 99025APL 25356.27697242  .00002114  00000+0  10659-2 0  9993", "line2": "2 30654  99.2429 279.8885 0035809  70.2851 290.2180 14.17136613968154"}}, "geometry": {"type": "Point", "coordinates": [112.41203828440062, 46.84834873794941]}}, {"type": "Feature", "properties": {"norad_id": 30656, "name": "FENGYUN 1C DEB", "group": "fengyun-1c-debris", "lat": 57.10047154800939, "lon": 159.33119845431696, "alt_km": 713.5975954153837, "timestamp": "2025-12-24T16:52:41.809896+00:00", "meta": {"OBJECT_NAME": "FENGYUN 1C DEB", "OBJECT_ID": "1999-025APN", "EPOCH": "2025-12-24T03:19:16.533984", "MEAN_MOTION": 14.45507872, "ECCENTRICITY": 0.00300806, "INCLINATION": 99.0186, "RA_OF_ASC_NODE": 172.943, "ARG_OF_PERICENTER": 51.9483, "MEAN_ANOMALY": 308.4414, "EPHEMERIS_TYPE": 0, "CLASSIFICATION_TYPE": "U", "NORAD_CAT_ID": 30656, "ELEMENT_SET_NO": 999, "REV_AT_EPOCH": 97250, "BSTAR": 0.0026304108, "MEAN_MOTION_DOT": 9.289e-05, "MEAN_MOTION_DDOT": 0}, "tle": {"line1": "1 30656U 99025APN 25358.13838581  .00009289  00000+0  26304-2 0  9999", "line2": "2 30656  99.0186 172.9430 0030080  51.9483 308.4414 14.45507872972502"}}, "geometry": {"type": "Point", "coordinates": [159.33119845431696, 57.10047154800939]}}, {"type": "Feature", "properties": {"norad_id": 30657, "name": "FENGYUN 1C DEB", "group": "fengyun-1c-debris", "lat": -62.65701108873087, "lon": -100.42110113261239, "alt_km": 764.4446524246778, "timestamp": "2025-12-24T16:52:41.809907+00:00", "meta": {"OBJECT_NAME": "FENGYUN 1C DEB", "OBJECT_ID": "1999-025APP", "EPOCH": "2025-12-24T05:51:56.680992", "MEAN_MOTION": 14.38734967, "ECCENTRICITY": 0.00163514, "INCLINATION": 98.8356, "RA_OF_ASC_NODE": 96.6129, "ARG_OF_PERICENTER": 308.0295, "MEAN_ANOMALY": 80.8354, "EPHEMERIS_TYPE": 0, "CLASSIFICATION_TYPE": "U", "NORAD_CAT_ID": 30657, "ELEMENT_SET_NO": 999, "REV_AT_EPOCH": 97398, "BSTAR": 0.0022803517, "MEAN_MOTION_DOT": 6.971e-05, "MEAN_MOTION_DDOT": 0}, "tle": {"line1": "1 30657U 99025APP 25358.24440603  .00006971  00000+0  22804-2 0  9992", "line2": "2 30657  98.8356  96.6129 0016351 308.0295  80.8354 14.38734967973984"}}, "geometry": {"type": "Point", "coordinates": [-100.42110113261239, -62.65701108873087]}}, {"type": "Feature", "properties": {"norad_id": 30658, "name": "FENGYUN 1C DEB", "group": "fengyun-1c-debris", "lat": 67.49281097019946, "lon": 9.001511527857478, "alt_km": 1008.9789811417186, "timestamp": "2025-12-24T16:52:41.809917+00:00", "meta": {"OBJECT_NAME": "FENGYUN 1C DEB", "OBJECT_ID": "1999-025APQ", "EPOCH": "2025-12-24T00:57:23.115168", "MEAN_MOTION": 13.872514, "ECCENTRICITY": 0.0184377, "INCLINATION": 98.4379, "RA_OF_ASC_NODE": 29.3933, "ARG_OF_PERICENTER": 196.7417, "MEAN_ANOMALY": 162.7604, "EPHEMERIS_TYPE": 0, "CLASSIFICATION_TYPE": "U", "NORAD_CAT_ID": 30658, "ELEMENT_SET_NO": 999, "REV_AT_EPOCH": 94841, "BSTAR": 0.0017166396, "MEAN_MOTION_DOT": 2.27e-05, "MEAN_MOTION_DDOT": 0}, "tle": {"line1": "1 30658U 99025APQ 25358.03985087  .00002270  00000+0  17166-2 0  9993", "line2": "2 30658  98.4379  29.3933 0184377 196.7417 162.7604 13.87251400948411"}}, "geometry": {"type": "Point", "coordinates": [9.001511527857478, 67.49281097019946]}}, {"type": "Feature", "properties": {"norad_id": 30660, "name": "FENGYUN 1C DEB", "group": "fengyun-1c-debris", "lat": 18.148057581898467, "lon": -81.83879971810839, "alt_km": 670.7249553897882, "timestamp": "2025-12-24T16:52:41.809928+00:00", "meta": {"OBJECT_NAME": "FENGYUN 1C DEB", "OBJECT_ID": "1999-025APS", "EPOCH": "2025-12-23T12:46:26.303232", "MEAN_MOTION": 14.87656716, "ECCENTRICITY": 0.01364209, "INCLINATION": 98.1389, "RA_OF_ASC_NODE": 94.2713, "ARG_OF_PERICENTER": 299.0591, "MEAN_ANOMALY": 75.9858, "EPHEMERIS_TYPE": 0, "CLASSIFICATION_TYPE": "U", "NORAD_CAT_ID": 30660, "ELEMENT_SET_NO": 999, "REV_AT_EPOCH": 945, "BSTAR": 0.00058275848, "MEAN_MOTION_DOT": 6.231e-05, "MEAN_MOTION_DDOT": 0}, "tle": {"line1": "1 30660U 99025APS 25357.53224888  .00006231  00000+0  58276-3 0  9994", "line2": "2 30660  98.1389  94.2713 0136420 299.0591  75.9858 14.87656716  9453"}}, "geometry": {"type": "Point", "coordinates": [-81.83879971810839, 18.148057581898467]}}, {"type": "Feature", "properties": {"norad_id": 30661, "name": "FENGYUN 1C DEB", "group": "fengyun-1c-debris", "lat": -53.46039345655475, "lon": -17.77579563467928, "alt_km": 904.3636010839737, "timestamp": "2025-12-24T16:52:41.809938+00:00", "meta": {"OBJECT_NAME": "FENGYUN 1C DEB", "OBJECT_ID": "1999-025APT", "EPOCH": "2025-12-23T17:48:31.598496", "MEAN_MOTION": 14.21148606, "ECCENTRICITY": 0.01443644, "INCLINATION": 99.4872, "RA_OF_ASC_NODE": 174.2338, "ARG_OF_PERICENTER": 14.6896, "MEAN_ANOMALY": 345.8407, "EPHEMERIS_TYPE": 0, "CLASSIFICATION_TYPE": "U", "NORAD_CAT_ID": 30661, "ELEMENT_SET_NO": 999, "REV_AT_EPOCH": 98058, "BSTAR": 0.0001125259, "MEAN_MOTION_DOT": 2.21e-06, "MEAN_MOTION_DDOT": 0}, "tle": {"line1": "1 30661U 99025APT 25357.74203239  .00000221  00000+0  11253-3 0  9992", "line2": "2 30661  99.4872 174.2338 0144364  14.6896 345.8407 14.21148606980585"}}, "geometry": {"type": "Point", "coordinates": [-17.77579563467928, -53.46039345655475]}}, {"type": "Feature", "properties": {"norad_id": 30662, "name": "FENGYUN 1C DEB", "group": "fengyun-1c-debris", "lat": -22.466789049637335, "lon": 59.0782830389489, "alt_km": 826.8390955464256, "timestamp": "2025-12-24T16:52:41.809948+00:00", "meta": {"OBJECT_NAME": "FENGYUN 1C DEB", "OBJECT_ID": "1999-025APU", "EPOCH": "2025-12-22T11:33:16.091136", "MEAN_MOTION": 14.22417109, "ECCENTRICITY": 0.00336775, "INCLINATION": 99.0515, "RA_OF_ASC_NODE": 53.018, "ARG_OF_PERICENTER": 243.1052, "MEAN_ANOMALY": 242.8592, "EPHEMERIS_TYPE": 0, "CLASSIFICATION_TYPE": "U", "NORAD_CAT_ID": 30662, "ELEMENT_SET_NO": 999, "REV_AT_EPOCH": 96777, "BSTAR": 0.0014345944, "MEAN_MOTION_DOT": 3.168e-05, "MEAN_MOTION_DDOT": 0}, "tle": {"line1": "1 30662U 99025APU 25356.48143624  .00003168  00000+0  14346-2 0  9992", "line2": "2 30662  99.0515  53.0180 0033677 243.1052 242.8592 14.22417109967777"}}, "geometry": {"type": "Point", "coordinates": [59.0782830389489, -22.466789049637335]}}]}